start=new Date('2023-06-28T00:00:00.000Z').valueOf();
sats=[{"ECCENTRICITY":"0.00009550","MEAN_MOTION":"15.08838937","TLE_LINE2":"2 53721  53.2178   2.3572 0000955  88.8990 271.2111 15.08838937 45035","SEMIMAJOR_AXIS":"6917.884","NORAD_CAT_ID":"53721","GP_ID":"234587447","APOAPSIS":"540.409","MEAN_MOTION_DOT":"0.00000063","LAUNCH_DATE":"2022-09-05","ARG_OF_PERICENTER":"88.8990","OBJECT_NAME":"STARLINK-4707","MEAN_ELEMENT_THEORY":"SGP4","BSTAR":"0.00002206400000","OBJECT_TYPE":"PAYLOAD","MEAN_ANOMALY":"271.2111","RCS_SIZE":"LARGE","TIME_SYSTEM":"UTC","TLE_LINE1":"1 53721U 22107X   23178.22750458  .00000063  00000-0  22064-4 0  9991","COUNTRY_CODE":"US","FILE":"3944221","REF_FRAME":"TEME","PERIAPSIS":"539.088","INCLINATION":"53.2178","CLASSIFICATION_TYPE":"U","RA_OF_ASC_NODE":"2.3572","DECAY_DATE":null,"PERIOD":"95.438","ELEMENT_SET_NO":"999","EPHEMERIS_TYPE":"0","REV_AT_EPOCH":"4503","OBJECT_ID":"2022-107X","SITE":"AFETR","EPOCH":"2023-06-27T05:27:36.395712","MEAN_MOTION_DDOT":"0.0000000000000","CENTER_NAME":"EARTH"},{"PERIAPSIS":"538.930","INCLINATION":"53.2167","CLASSIFICATION_TYPE":"U","RA_OF_ASC_NODE":"359.7239","DECAY_DATE":null,"FILE":"3944525","REF_FRAME":"TEME","EPHEMERIS_TYPE":"0","REV_AT_EPOCH":"4512","OBJECT_ID":"2022-107Y","SITE":"AFETR","EPOCH":"2023-06-27T19:56:42.244800","MEAN_MOTION_DDOT":"0.0000000000000","CENTER_NAME":"EARTH","PERIOD":"95.437","ELEMENT_SET_NO":"999","APOAPSIS":"540.519","MEAN_MOTION_DOT":"0.00007230","ECCENTRICITY":"0.00011490","MEAN_MOTION":"15.08846860","TLE_LINE2":"2 53722  53.2167 359.7239 0001149  89.7406 270.3718 15.08846860 45128","SEMIMAJOR_AXIS":"6917.859","GP_ID":"234594974","NORAD_CAT_ID":"53722","BSTAR":"0.00047179000000","OBJECT_TYPE":"PAYLOAD","MEAN_ANOMALY":"270.3718","RCS_SIZE":"LARGE","TIME_SYSTEM":"UTC","TLE_LINE1":"1 53722U 22107Y   23178.83104450  .00007230  00000-0  47179-3 0  9990","COUNTRY_CODE":"US","LAUNCH_DATE":"2022-09-05","ARG_OF_PERICENTER":"89.7406","OBJECT_NAME":"STARLINK-4700","MEAN_ELEMENT_THEORY":"SGP4"},{"PERIOD":"95.437","ELEMENT_SET_NO":"999","EPOCH":"2023-06-26T20:07:16.829472","MEAN_MOTION_DDOT":"0.0000000000000","CENTER_NAME":"EARTH","EPHEMERIS_TYPE":"0","REV_AT_EPOCH":"4497","OBJECT_ID":"2022-107Z","SITE":"AFETR","FILE":"3943899","REF_FRAME":"TEME","RA_OF_ASC_NODE":"4.1924","DECAY_DATE":null,"INCLINATION":"53.2183","PERIAPSIS":"539.075","CLASSIFICATION_TYPE":"U","OBJECT_NAME":"STARLINK-4705","ARG_OF_PERICENTER":"86.3676","MEAN_ELEMENT_THEORY":"SGP4","LAUNCH_DATE":"2022-09-05","TIME_SYSTEM":"UTC","TLE_LINE1":"1 53723U 22107Z   23177.83838923  .00000901  00000-0  74663-4 0  9996","COUNTRY_CODE":"US","BSTAR":"0.00007466300000","OBJECT_TYPE":"PAYLOAD","RCS_SIZE":"LARGE","MEAN_ANOMALY":"273.7426","TLE_LINE2":"2 53723  53.2183   4.1924 0000962  86.3676 273.7426 15.08841615 44971","SEMIMAJOR_AXIS":"6917.875","GP_ID":"234579616","NORAD_CAT_ID":"53723","ECCENTRICITY":"0.00009620","MEAN_MOTION":"15.08841615","MEAN_MOTION_DOT":"0.00000901","APOAPSIS":"540.406"},{"RA_OF_ASC_NODE":"359.6565","DECAY_DATE":null,"INCLINATION":"53.2171","PERIAPSIS":"539.019","CLASSIFICATION_TYPE":"U","FILE":"3944525","REF_FRAME":"TEME","EPOCH":"2023-06-27T19:40:45.780384","MEAN_MOTION_DDOT":"0.0000000000000","CENTER_NAME":"EARTH","EPHEMERIS_TYPE":"0","REV_AT_EPOCH":"4512","OBJECT_ID":"2022-107AA","SITE":"AFETR","ELEMENT_SET_NO":"999","PERIOD":"95.437","MEAN_MOTION_DOT":"0.00001333","APOAPSIS":"540.431","TLE_LINE2":"2 53724  53.2171 359.6565 0001020  74.8097 285.3008 15.08846689 45122","SEMIMAJOR_AXIS":"6917.860","NORAD_CAT_ID":"53724","GP_ID":"234594574","ECCENTRICITY":"0.00010200","MEAN_MOTION":"15.08846689","TIME_SYSTEM":"UTC","TLE_LINE1":"1 53724U 22107AA  23178.81997431  .00001333  00000-0  10178-3 0  9996","COUNTRY_CODE":"US","BSTAR":"0.00010178000000","OBJECT_TYPE":"PAYLOAD","MEAN_ANOMALY":"285.3008","RCS_SIZE":"LARGE","ARG_OF_PERICENTER":"74.8097","OBJECT_NAME":"STARLINK-4663","MEAN_ELEMENT_THEORY":"SGP4","LAUNCH_DATE":"2022-09-05"},{"FILE":"3943899","REF_FRAME":"TEME","CLASSIFICATION_TYPE":"U","INCLINATION":"53.2176","PERIAPSIS":"539.150","DECAY_DATE":null,"RA_OF_ASC_NODE":"4.1635","PERIOD":"95.438","ELEMENT_SET_NO":"999","OBJECT_ID":"2022-107AC","SITE":"AFETR","EPHEMERIS_TYPE":"0","REV_AT_EPOCH":"4497","CENTER_NAME":"EARTH","EPOCH":"2023-06-26T20:00:35.762400","MEAN_MOTION_DDOT":"0.0000000000000","ECCENTRICITY":"0.00008620","MEAN_MOTION":"15.08839803","SEMIMAJOR_AXIS":"6917.881","NORAD_CAT_ID":"53726","GP_ID":"234579610","TLE_LINE2":"2 53726  53.2176   4.1635 0000862  88.9688 271.1403 15.08839803 44978","APOAPSIS":"540.342","MEAN_MOTION_DOT":"0.00000272","LAUNCH_DATE":"2022-09-05","MEAN_ELEMENT_THEORY":"SGP4","OBJECT_NAME":"STARLINK-4697","ARG_OF_PERICENTER":"88.9688","MEAN_ANOMALY":"271.1403","RCS_SIZE":"LARGE","BSTAR":"0.00003515200000","OBJECT_TYPE":"PAYLOAD","COUNTRY_CODE":"US","TIME_SYSTEM":"UTC","TLE_LINE1":"1 53726U 22107AC  23177.83374725  .00000272  00000-0  35152-4 0  9995"},{"CLASSIFICATION_TYPE":"U","PERIAPSIS":"538.723","INCLINATION":"53.2174","DECAY_DATE":null,"RA_OF_ASC_NODE":"2.4465","REF_FRAME":"TEME","FILE":"3944200","SITE":"AFETR","OBJECT_ID":"2022-107AD","REV_AT_EPOCH":"4503","EPHEMERIS_TYPE":"0","CENTER_NAME":"EARTH","MEAN_MOTION_DDOT":"0.0000000000000","EPOCH":"2023-06-27T05:48:49.879008","ELEMENT_SET_NO":"999","PERIOD":"95.438","APOAPSIS":"540.765","MEAN_MOTION_DOT":"-0.00000091","MEAN_MOTION":"15.08840467","ECCENTRICITY":"0.00014760","NORAD_CAT_ID":"53727","GP_ID":"234586889","SEMIMAJOR_AXIS":"6917.879","TLE_LINE2":"2 53727  53.2174   2.4465 0001476  66.3280 293.7866 15.08840467 45038","RCS_SIZE":"LARGE","MEAN_ANOMALY":"293.7866","OBJECT_TYPE":"PAYLOAD","BSTAR":"0.00001236500000","COUNTRY_CODE":"US","TLE_LINE1":"1 53727U 22107AD  23178.24224397 -.00000091  00000-0  12365-4 0  9992","TIME_SYSTEM":"UTC","LAUNCH_DATE":"2022-09-05","MEAN_ELEMENT_THEORY":"SGP4","ARG_OF_PERICENTER":"66.3280","OBJECT_NAME":"STARLINK-4701"},{"DECAY_DATE":null,"RA_OF_ASC_NODE":"2.4239","CLASSIFICATION_TYPE":"U","INCLINATION":"53.2158","PERIAPSIS":"539.053","REF_FRAME":"TEME","FILE":"3944200","CENTER_NAME":"EARTH","MEAN_MOTION_DDOT":"0.0000000000000","EPOCH":"2023-06-27T05:43:30.845280","SITE":"AFETR","OBJECT_ID":"2022-107AE","REV_AT_EPOCH":"4503","EPHEMERIS_TYPE":"0","ELEMENT_SET_NO":"999","PERIOD":"95.437","MEAN_MOTION_DOT":"0.00003292","APOAPSIS":"540.407","GP_ID":"234587301","NORAD_CAT_ID":"53728","SEMIMAJOR_AXIS":"6917.865","TLE_LINE2":"2 53728  53.2158   2.4239 0000978  92.0390 268.0715 15.08845020 45032","MEAN_MOTION":"15.08845020","ECCENTRICITY":"0.00009780","COUNTRY_CODE":"US","TLE_LINE1":"1 53728U 22107AE  23178.23855145  .00003292  00000-0  22479-3 0  9994","TIME_SYSTEM":"UTC","MEAN_ANOMALY":"268.0715","RCS_SIZE":"LARGE","OBJECT_TYPE":"PAYLOAD","BSTAR":"0.00022479000000","MEAN_ELEMENT_THEORY":"SGP4","ARG_OF_PERICENTER":"92.0390","OBJECT_NAME":"STARLINK-4640","LAUNCH_DATE":"2022-09-05"},{"RA_OF_ASC_NODE":"0.1357","DECAY_DATE":null,"PERIAPSIS":"539.052","INCLINATION":"53.2182","CLASSIFICATION_TYPE":"U","FILE":"3944505","REF_FRAME":"TEME","EPOCH":"2023-06-27T18:47:49.611840","MEAN_MOTION_DDOT":"0.0000000000000","CENTER_NAME":"EARTH","EPHEMERIS_TYPE":"0","REV_AT_EPOCH":"4511","OBJECT_ID":"2022-107AF","SITE":"AFETR","PERIOD":"95.437","ELEMENT_SET_NO":"999","MEAN_MOTION_DOT":"0.00000717","APOAPSIS":"540.416","TLE_LINE2":"2 53729  53.2182   0.1357 0000986  94.7004 265.4101 15.08843659 45111","SEMIMAJOR_AXIS":"6917.869","GP_ID":"234594990","NORAD_CAT_ID":"53729","ECCENTRICITY":"0.00009860","MEAN_MOTION":"15.08843659","TIME_SYSTEM":"UTC","TLE_LINE1":"1 53729U 22107AF  23178.78321310  .00000717  00000-0  63127-4 0  9992","COUNTRY_CODE":"US","BSTAR":"0.00006312700000","OBJECT_TYPE":"PAYLOAD","RCS_SIZE":"LARGE","MEAN_ANOMALY":"265.4101","OBJECT_NAME":"STARLINK-4651","ARG_OF_PERICENTER":"94.7004","MEAN_ELEMENT_THEORY":"SGP4","LAUNCH_DATE":"2022-09-05"},{"PERIAPSIS":"538.927","INCLINATION":"53.2167","CLASSIFICATION_TYPE":"U","RA_OF_ASC_NODE":"0.0905","DECAY_DATE":null,"REF_FRAME":"TEME","FILE":"3944505","REV_AT_EPOCH":"4511","EPHEMERIS_TYPE":"0","SITE":"AFETR","OBJECT_ID":"2022-107AG","MEAN_MOTION_DDOT":"0.0000000000000","EPOCH":"2023-06-27T18:37:13.047744","CENTER_NAME":"EARTH","ELEMENT_SET_NO":"999","PERIOD":"95.437","APOAPSIS":"540.496","MEAN_MOTION_DOT":"0.00005003","MEAN_MOTION":"15.08851154","ECCENTRICITY":"0.00011340","TLE_LINE2":"2 53730  53.2167   0.0905 0001134  88.1987 271.9135 15.08851154 45115","GP_ID":"234594584","NORAD_CAT_ID":"53730","SEMIMAJOR_AXIS":"6917.846","OBJECT_TYPE":"PAYLOAD","BSTAR":"0.00033210000000","RCS_SIZE":"LARGE","MEAN_ANOMALY":"271.9135","TLE_LINE1":"1 53730U 22107AG  23178.77584546  .00005003  00000-0  33210-3 0  9997","TIME_SYSTEM":"UTC","COUNTRY_CODE":"US","LAUNCH_DATE":"2022-09-05","ARG_OF_PERICENTER":"88.1987","OBJECT_NAME":"STARLINK-4641","MEAN_ELEMENT_THEORY":"SGP4"},{"SEMIMAJOR_AXIS":"6917.875","NORAD_CAT_ID":"53731","GP_ID":"234594595","TLE_LINE2":"2 53731  53.2185   0.1604 0000833  85.3191 274.7896 15.08841728 45115","ECCENTRICITY":"0.00008330","MEAN_MOTION":"15.08841728","MEAN_MOTION_DOT":"0.00001636","APOAPSIS":"540.316","MEAN_ELEMENT_THEORY":"SGP4","ARG_OF_PERICENTER":"85.3191","OBJECT_NAME":"STARLINK-4636","LAUNCH_DATE":"2022-09-05","COUNTRY_CODE":"US","TIME_SYSTEM":"UTC","TLE_LINE1":"1 53731U 22107AH  23178.78689719  .00001636  00000-0  12084-3 0  9991","MEAN_ANOMALY":"274.7896","RCS_SIZE":"LARGE","BSTAR":"0.00012084000000","OBJECT_TYPE":"PAYLOAD","FILE":"3944505","REF_FRAME":"TEME","DECAY_DATE":null,"RA_OF_ASC_NODE":"0.1604","CLASSIFICATION_TYPE":"U","PERIAPSIS":"539.164","INCLINATION":"53.2185","PERIOD":"95.437","ELEMENT_SET_NO":"999","CENTER_NAME":"EARTH","EPOCH":"2023-06-27T18:53:07.917216","MEAN_MOTION_DDOT":"0.0000000000000","OBJECT_ID":"2022-107AH","SITE":"AFETR","EPHEMERIS_TYPE":"0","REV_AT_EPOCH":"4511"}];
